STARLINK-36148          
1 67005U 25293C   26008.44194353  .00105822  00000+0  16987-2 0  9998
2 67005  69.9998 248.3496 0002913 269.8017  90.2836 15.52541892  5818
STARLINK-36156          
1 67006U 25293D   26008.37716875  .00098633  00000+0  15835-2 0  9992
2 67006  70.0014 248.5244 0003283 270.1729  89.9081 15.52565298  5802
STARLINK-36123          
1 67007U 25293E   26008.58335648 -.00014440  00000+0 -23245-3 0  9992
2 67007  69.9999 247.9615 0003047 268.4884 161.7458 15.52515392  4465
STARLINK-36163          
1 67008U 25293F   26008.33334491 -.00095281  00000+0 -15629-2 0  9999
2 67008  69.9997 248.6418 0003348 271.2498 205.8860 15.52548554  4429
STARLINK-36118          
1 67009U 25293G   26008.37648302  .00088579  00000+0  14249-2 0  9990
2 67009  69.9996 248.5229 0003337 267.4089  92.6716 15.52550530  5801
STARLINK-36189          
1 67010U 25293H   26008.33334491 -.00108591  00000+0 -17842-2 0  9990
2 67010  69.9997 248.6348 0003375 273.3713 209.5142 15.52554239  4428
STARLINK-36167          
1 67011U 25293J   26008.33334491 -.00102085  00000+0 -16761-2 0  9992
2 67011  69.9995 248.6370 0003361 269.3162 211.6550 15.52550215  4360
STARLINK-36175          
1 67012U 25293K   26008.33334491 -.00113225  00000+0 -18615-2 0  9991
2 67012  69.9996 248.6321 0003380 272.0842 212.7206 15.52555837  4360
STARLINK-35856          
1 67013U 25293L   26008.37511141  .00076744  00000+0  12355-2 0  9992
2 67013  69.9996 248.5162 0003341 269.9512  90.1292 15.52578187  5805
STARLINK-36207          
1 67014U 25293M   26008.95425725  .02208551  00000+0  28809-1 0  9994
2 67014  70.0060 246.9266 0015115 306.1362  53.8426 15.55128684  5897
STARLINK-36093          
1 67015U 25293N   26008.95395211  .00051263  00000+0  82995-3 0  9993
2 67015  70.0015 246.9220 0002936 248.6820 111.4053 15.52542596  5890
STARLINK-36120          
1 67016U 25293P   26008.82543495  .00084461  00000+0  13587-2 0  9995
2 67016  69.9989 247.2776 0003636 261.7784  98.2991 15.52565324  5876
