CCSDS_OMM_VERS = 2.0
CREATION_DATE  = 
ORIGINATOR     = 

OBJECT_NAME    = STARLINK-36148
OBJECT_ID      = 2025-293C
CENTER_NAME    = EARTH
REF_FRAME      = TEME
TIME_SYSTEM    = UTC
MEAN_ELEMENT_THEORY = SGP/SGP4

EPOCH          = 2026-01-08T10:36:23.920992
MEAN_MOTION    = 15.52541892
ECCENTRICITY   = .00029133
INCLINATION    = 69.9998
RA_OF_ASC_NODE = 248.3496
ARG_OF_PERICENTER = 269.8017
MEAN_ANOMALY   = 90.2836

EPHEMERIS_TYPE = 0
CLASSIFICATION_TYPE = U
NORAD_CAT_ID   = 67005
ELEMENT_SET_NO = 999
REV_AT_EPOCH   = 581
BSTAR          = .16986909E-2
MEAN_MOTION_DOT = .105822E-2
MEAN_MOTION_DDOT = 0

CCSDS_OMM_VERS = 2.0
CREATION_DATE  = 
ORIGINATOR     = 

OBJECT_NAME    = STARLINK-36156
OBJECT_ID      = 2025-293D
CENTER_NAME    = EARTH
REF_FRAME      = TEME
TIME_SYSTEM    = UTC
MEAN_ELEMENT_THEORY = SGP/SGP4

EPOCH          = 2026-01-08T09:03:07.380000
MEAN_MOTION    = 15.52565298
ECCENTRICITY   = .00032839
INCLINATION    = 70.0014
RA_OF_ASC_NODE = 248.5244
ARG_OF_PERICENTER = 270.1729
MEAN_ANOMALY   = 89.9081

EPHEMERIS_TYPE = 0
CLASSIFICATION_TYPE = U
NORAD_CAT_ID   = 67006
ELEMENT_SET_NO = 999
REV_AT_EPOCH   = 580
BSTAR          = .1583522E-2
MEAN_MOTION_DOT = .98633E-3
MEAN_MOTION_DDOT = 0

CCSDS_OMM_VERS = 2.0
CREATION_DATE  = 
ORIGINATOR     = 

OBJECT_NAME    = STARLINK-36123
OBJECT_ID      = 2025-293E
CENTER_NAME    = EARTH
REF_FRAME      = TEME
TIME_SYSTEM    = UTC
MEAN_ELEMENT_THEORY = SGP/SGP4

EPOCH          = 2026-01-08T14:00:01.999872
MEAN_MOTION    = 15.52515392
ECCENTRICITY   = .00030475
INCLINATION    = 69.9999
RA_OF_ASC_NODE = 247.9615
ARG_OF_PERICENTER = 268.4884
MEAN_ANOMALY   = 161.7458

EPHEMERIS_TYPE = 0
CLASSIFICATION_TYPE = U
NORAD_CAT_ID   = 67007
ELEMENT_SET_NO = 999
REV_AT_EPOCH   = 446
BSTAR          = -.23245186E-3
MEAN_MOTION_DOT = -.1444E-3
MEAN_MOTION_DDOT = 0

CCSDS_OMM_VERS = 2.0
CREATION_DATE  = 
ORIGINATOR     = 

OBJECT_NAME    = STARLINK-36163
OBJECT_ID      = 2025-293F
CENTER_NAME    = EARTH
REF_FRAME      = TEME
TIME_SYSTEM    = UTC
MEAN_ELEMENT_THEORY = SGP/SGP4

EPOCH          = 2026-01-08T08:00:01.000224
MEAN_MOTION    = 15.52548554
ECCENTRICITY   = .0003348
INCLINATION    = 69.9997
RA_OF_ASC_NODE = 248.6418
ARG_OF_PERICENTER = 271.2498
MEAN_ANOMALY   = 205.8860

EPHEMERIS_TYPE = 0
CLASSIFICATION_TYPE = U
NORAD_CAT_ID   = 67008
ELEMENT_SET_NO = 999
REV_AT_EPOCH   = 442
BSTAR          = -.15629372E-2
MEAN_MOTION_DOT = -.95281E-3
MEAN_MOTION_DDOT = 0

CCSDS_OMM_VERS = 2.0
CREATION_DATE  = 
ORIGINATOR     = 

OBJECT_NAME    = STARLINK-36118
OBJECT_ID      = 2025-293G
CENTER_NAME    = EARTH
REF_FRAME      = TEME
TIME_SYSTEM    = UTC
MEAN_ELEMENT_THEORY = SGP/SGP4

EPOCH          = 2026-01-08T09:02:08.132928
MEAN_MOTION    = 15.52550530
ECCENTRICITY   = .00033375
INCLINATION    = 69.9996
RA_OF_ASC_NODE = 248.5229
ARG_OF_PERICENTER = 267.4089
MEAN_ANOMALY   = 92.6716

EPHEMERIS_TYPE = 0
CLASSIFICATION_TYPE = U
NORAD_CAT_ID   = 67009
ELEMENT_SET_NO = 999
REV_AT_EPOCH   = 580
BSTAR          = .14249296E-2
MEAN_MOTION_DOT = .88579E-3
MEAN_MOTION_DDOT = 0

CCSDS_OMM_VERS = 2.0
CREATION_DATE  = 
ORIGINATOR     = 

OBJECT_NAME    = STARLINK-36189
OBJECT_ID      = 2025-293H
CENTER_NAME    = EARTH
REF_FRAME      = TEME
TIME_SYSTEM    = UTC
MEAN_ELEMENT_THEORY = SGP/SGP4

EPOCH          = 2026-01-08T08:00:01.000224
MEAN_MOTION    = 15.52554239
ECCENTRICITY   = .00033757
INCLINATION    = 69.9997
RA_OF_ASC_NODE = 248.6348
ARG_OF_PERICENTER = 273.3713
MEAN_ANOMALY   = 209.5142

EPHEMERIS_TYPE = 0
CLASSIFICATION_TYPE = U
NORAD_CAT_ID   = 67010
ELEMENT_SET_NO = 999
REV_AT_EPOCH   = 442
BSTAR          = -.17842437E-2
MEAN_MOTION_DOT = -.108591E-2
MEAN_MOTION_DDOT = 0

CCSDS_OMM_VERS = 2.0
CREATION_DATE  = 
ORIGINATOR     = 

OBJECT_NAME    = STARLINK-36167
OBJECT_ID      = 2025-293J
CENTER_NAME    = EARTH
REF_FRAME      = TEME
TIME_SYSTEM    = UTC
MEAN_ELEMENT_THEORY = SGP/SGP4

EPOCH          = 2026-01-08T08:00:01.000224
MEAN_MOTION    = 15.52550215
ECCENTRICITY   = .00033611
INCLINATION    = 69.9995
RA_OF_ASC_NODE = 248.6370
ARG_OF_PERICENTER = 269.3162
MEAN_ANOMALY   = 211.6550

EPHEMERIS_TYPE = 0
CLASSIFICATION_TYPE = U
NORAD_CAT_ID   = 67011
ELEMENT_SET_NO = 999
REV_AT_EPOCH   = 436
BSTAR          = -.16760608E-2
MEAN_MOTION_DOT = -.102085E-2
MEAN_MOTION_DDOT = 0

CCSDS_OMM_VERS = 2.0
CREATION_DATE  = 
ORIGINATOR     = 

OBJECT_NAME    = STARLINK-36175
OBJECT_ID      = 2025-293K
CENTER_NAME    = EARTH
REF_FRAME      = TEME
TIME_SYSTEM    = UTC
MEAN_ELEMENT_THEORY = SGP/SGP4

EPOCH          = 2026-01-08T08:00:01.000224
MEAN_MOTION    = 15.52555837
ECCENTRICITY   = .00033801
INCLINATION    = 69.9996
RA_OF_ASC_NODE = 248.6321
ARG_OF_PERICENTER = 272.0842
MEAN_ANOMALY   = 212.7206

EPHEMERIS_TYPE = 0
CLASSIFICATION_TYPE = U
NORAD_CAT_ID   = 67012
ELEMENT_SET_NO = 999
REV_AT_EPOCH   = 436
BSTAR          = -.18614783E-2
MEAN_MOTION_DOT = -.113225E-2
MEAN_MOTION_DDOT = 0

CCSDS_OMM_VERS = 2.0
CREATION_DATE  = 
ORIGINATOR     = 

OBJECT_NAME    = STARLINK-35856
OBJECT_ID      = 2025-293L
CENTER_NAME    = EARTH
REF_FRAME      = TEME
TIME_SYSTEM    = UTC
MEAN_ELEMENT_THEORY = SGP/SGP4

EPOCH          = 2026-01-08T09:00:09.625824
MEAN_MOTION    = 15.52578187
ECCENTRICITY   = .0003341
INCLINATION    = 69.9996
RA_OF_ASC_NODE = 248.5162
ARG_OF_PERICENTER = 269.9512
MEAN_ANOMALY   = 90.1292

EPHEMERIS_TYPE = 0
CLASSIFICATION_TYPE = U
NORAD_CAT_ID   = 67013
ELEMENT_SET_NO = 999
REV_AT_EPOCH   = 580
BSTAR          = .12355193E-2
MEAN_MOTION_DOT = .76744E-3
MEAN_MOTION_DDOT = 0

CCSDS_OMM_VERS = 2.0
CREATION_DATE  = 
ORIGINATOR     = 

OBJECT_NAME    = STARLINK-36207
OBJECT_ID      = 2025-293M
CENTER_NAME    = EARTH
REF_FRAME      = TEME
TIME_SYSTEM    = UTC
MEAN_ELEMENT_THEORY = SGP/SGP4

EPOCH          = 2026-01-08T22:54:07.826400
MEAN_MOTION    = 15.55128684
ECCENTRICITY   = .0015115
INCLINATION    = 70.0060
RA_OF_ASC_NODE = 246.9266
ARG_OF_PERICENTER = 306.1362
MEAN_ANOMALY   = 53.8426

EPHEMERIS_TYPE = 0
CLASSIFICATION_TYPE = U
NORAD_CAT_ID   = 67014
ELEMENT_SET_NO = 999
REV_AT_EPOCH   = 589
BSTAR          = .28809E-1
MEAN_MOTION_DOT = .2208551E-1
MEAN_MOTION_DDOT = 0

CCSDS_OMM_VERS = 2.0
CREATION_DATE  = 
ORIGINATOR     = 

OBJECT_NAME    = STARLINK-36093
OBJECT_ID      = 2025-293N
CENTER_NAME    = EARTH
REF_FRAME      = TEME
TIME_SYSTEM    = UTC
MEAN_ELEMENT_THEORY = SGP/SGP4

EPOCH          = 2026-01-08T22:53:41.462304
MEAN_MOTION    = 15.52542596
ECCENTRICITY   = .0002936
INCLINATION    = 70.0015
RA_OF_ASC_NODE = 246.9220
ARG_OF_PERICENTER = 248.6820
MEAN_ANOMALY   = 111.4053

EPHEMERIS_TYPE = 0
CLASSIFICATION_TYPE = U
NORAD_CAT_ID   = 67015
ELEMENT_SET_NO = 999
REV_AT_EPOCH   = 589
BSTAR          = .82995E-3
MEAN_MOTION_DOT = .51263E-3
MEAN_MOTION_DDOT = 0

CCSDS_OMM_VERS = 2.0
CREATION_DATE  = 
ORIGINATOR     = 

OBJECT_NAME    = STARLINK-36120
OBJECT_ID      = 2025-293P
CENTER_NAME    = EARTH
REF_FRAME      = TEME
TIME_SYSTEM    = UTC
MEAN_ELEMENT_THEORY = SGP/SGP4

EPOCH          = 2026-01-08T19:48:37.579680
MEAN_MOTION    = 15.52565324
ECCENTRICITY   = .0003636
INCLINATION    = 69.9989
RA_OF_ASC_NODE = 247.2776
ARG_OF_PERICENTER = 261.7784
MEAN_ANOMALY   = 98.2991

EPHEMERIS_TYPE = 0
CLASSIFICATION_TYPE = U
NORAD_CAT_ID   = 67016
ELEMENT_SET_NO = 999
REV_AT_EPOCH   = 587
BSTAR          = .13587E-2
MEAN_MOTION_DOT = .84461E-3
MEAN_MOTION_DDOT = 0

